[{"OBJECT_NAME":"STARLINK-35135","OBJECT_ID":"2025-210H","EPOCH":"2026-03-09T23:06:59.058720","MEAN_MOTION":15.30197797,"ECCENTRICITY":9.846e-5,"INCLINATION":53.1613,"RA_OF_ASC_NODE":305.7579,"ARG_OF_PERICENTER":92.0819,"MEAN_ANOMALY":268.0294,"EPHEMERIS_TYPE":0,"CLASSIFICATION_TYPE":"U","NORAD_CAT_ID":65629,"ELEMENT_SET_NO":999,"REV_AT_EPOCH":2777,"BSTAR":0.0005981416,"MEAN_MOTION_DOT":0.00017396,"MEAN_MOTION_DDOT":0},{"OBJECT_NAME":"COSMOS 1975","OBJECT_ID":"1988-093A","EPOCH":"2026-03-09T14:15:08.474112","MEAN_MOTION":15.28069249,"ECCENTRICITY":0.0012117,"INCLINATION":82.5181,"RA_OF_ASC_NODE":117.7814,"ARG_OF_PERICENTER":163.8427,"MEAN_ANOMALY":196.3201,"EPHEMERIS_TYPE":0,"CLASSIFICATION_TYPE":"U","NORAD_CAT_ID":19573,"ELEMENT_SET_NO":999,"REV_AT_EPOCH":1939,"BSTAR":0.0002787,"MEAN_MOTION_DOT":7.676e-5,"MEAN_MOTION_DDOT":0}]
